NORAD_CAT_ID,OBJECT_NAME,OBJECT_TYPE,EPOCH,MEAN_MOTION,ECCENTRICITY,INCLINATION,RA_OF_ASC_NODE,ARG_OF_PERICENTER,MEAN_ANOMALY,BSTAR,MEAN_MOTION_DOT,MEAN_MOTION_DDOT,TLE_LINE0,TLE_LINE1,TLE_LINE2,SEMIMAJOR_AXIS,PERIOD,APOGEE,PERIGEE,DECAYED
55742.0,STARLINK-5594,PAYLOAD,2023-12-11 14:11:46,14.98318667,0.0003263,69.9982,149.8351,271.9197,88.1589,0.00010048,1.106e-05,0.0,0 STARLINK-5594,1 55742U 23028B   23345.59151110  .00001106  00000-0  10048-3 0  9992,2 55742  69.9982 149.8351 0003263 271.9197  88.1589 14.98318667 43345,6950.228,96.108,574.361,569.825,0.0
55742.0,STARLINK-5594,PAYLOAD,2023-12-11 19:00:10,14.98319846,0.0003188,69.9985,149.3305,270.4177,89.6616,0.00010327,1.139e-05,0.0,0 STARLINK-5594,1 55742U 23028B   23345.79179174  .00001139  00000-0  10327-3 0  9990,2 55742  69.9985 149.3305 0003188 270.4177  89.6616 14.98319846 43370,6950.224,96.108,574.305,569.874,0.0
55742.0,STARLINK-5594,PAYLOAD,2023-12-11 20:36:18,14.98320511,0.0003177,69.9984,149.1617,269.3972,90.6823,0.00010618,1.174e-05,0.0,0 STARLINK-5594,1 55742U 23028B   23345.85855089  .00001174  00000-0  10618-3 0  9995,2 55742  69.9984 149.1617 0003177 269.3972  90.6823 14.98320511 43385,6950.222,96.108,574.295,569.879,0.0
55742.0,STARLINK-5594,PAYLOAD,2023-12-12 14:13:47,14.98323084,0.0003126,69.9986,147.3103,268.3692,91.7109,0.00015549,1.762e-05,0.0,0 STARLINK-5594,1 55742U 23028B   23346.59291436  .00001762  00000-0  15549-3 0  9998,2 55742  69.9986 147.3103 0003126 268.3692  91.7109 14.98323084 43498,6950.214,96.107,574.252,569.907,0.0
55742.0,STARLINK-5594,PAYLOAD,2023-12-12 19:02:12,14.98323716,0.0003143,69.9987,146.8056,269.0316,91.0483,0.0001579,1.791e-05,0.0,0 STARLINK-5594,1 55742U 23028B   23346.79319552  .00001791  00000-0  15790-3 0  9990,2 55742  69.9987 146.8056 0003143 269.0316  91.0483 14.98323716 43524,6950.212,96.107,574.262,569.893,0.0
55742.0,STARLINK-5594,PAYLOAD,2023-12-12 20:38:20,14.98325961,0.0003128,69.9987,146.6374,268.7591,91.321,0.00018478,2.112e-05,0.0,0 STARLINK-5594,1 55742U 23028B   23346.85995437  .00002112  00000-0  18478-3 0  9993,2 55742  69.9987 146.6374 0003128 268.7591  91.3210 14.98325961 43535,6950.205,96.107,574.244,569.896,0.0
55742.0,STARLINK-5594,PAYLOAD,2023-12-13 14:15:48,14.983302,0.000317,69.9987,144.7854,270.4065,89.6731,0.00018699,2.139e-05,0.0,0 STARLINK-5594,1 55742U 23028B   23347.59431418  .00002139  00000-0  18699-3 0  9993,2 55742  69.9987 144.7854 0003170 270.4065  89.6731 14.98330200 43642,6950.192,96.107,574.26,569.854,0.0
55742.0,STARLINK-5594,PAYLOAD,2023-12-13 19:04:12,14.98332758,0.0003139,69.9989,144.2808,269.4668,90.6132,0.00021709,2.498e-05,0.0,0 STARLINK-5594,1 55742U 23028B   23347.79459293  .00002498  00000-0  21709-3 0  9990,2 55742  69.9989 144.2808 0003139 269.4668  90.6132 14.98332758 43670,6950.184,96.107,574.231,569.868,0.0
55742.0,STARLINK-5594,PAYLOAD,2023-12-13 20:40:20,14.983337,0.0003136,69.9989,144.1126,269.1797,90.9003,0.00022714,2.618e-05,0.0,0 STARLINK-5594,1 55742U 23028B   23347.86135231  .00002618  00000-0  22714-3 0  9992,2 55742  69.9989 144.1126 0003136 269.1797  90.9003 14.98333700 43688,6950.181,96.107,574.226,569.867,0.0
55742.0,STARLINK-5594,PAYLOAD,2023-12-14 14:17:49,14.98342306,0.0003186,70.0001,142.2612,271.449,88.6304,0.00029972,3.486e-05,0.0,0 STARLINK-5594,1 55742U 23028B   23348.59570747  .00003486  00000-0  29972-3 0  9995,2 55742  70.0001 142.2612 0003186 271.4490  88.6304 14.98342306 43798,6950.155,96.106,574.234,569.806,0.0
55742.0,STARLINK-5594,PAYLOAD,2023-12-14 20:42:21,14.98347084,0.0003142,70.0001,141.5879,270.1754,89.9045,0.00036887,4.313e-05,0.0,0 STARLINK-5594,1 55742U 23028B   23348.86274381  .00004313  00000-0  36887-3 0  9993,2 55742  70.0001 141.5879 0003142 270.1754  89.9045 14.98347084 43835,6950.14,96.106,574.189,569.821,0.0
55742.0,STARLINK-5594,PAYLOAD,2023-12-15 11:07:33,14.98336485,0.0002841,70.0013,140.0742,260.0484,100.0354,2.0654e-05,1.54e-06,0.0,0 STARLINK-5594,1 55742U 23028B   23349.46358430  .00000154  00000-0  20654-4 0  9993,2 55742  70.0013 140.0742 0002841 260.0484 100.0354 14.98336485 43925,6950.173,96.107,574.012,570.063,0.0
55742.0,STARLINK-5594,PAYLOAD,2023-12-15 14:19:49,14.98337407,0.0002914,70.0014,139.7396,249.7628,110.3218,8.1041e-05,8.74e-06,0.0,0 STARLINK-5594,1 55742U 23028B   23349.59710409  .00000874  00000-0  81041-4 0  9991,2 55742  70.0014 139.7396 0002914 249.7628 110.3218 14.98337407 43941,6950.17,96.107,574.06,570.01,0.0
55742.0,STARLINK-5594,PAYLOAD,2023-12-15 20:44:22,14.98333047,0.0002918,69.9996,139.0644,261.2724,98.8105,5.1339e-05,5.2e-06,0.0,0 STARLINK-5594,1 55742U 23028B   23349.86414830  .00000520  00000-0  51339-4 0  9995,2 55742  69.9996 139.0644 0002918 261.2724  98.8105 14.98333047 43981,6950.183,96.107,574.077,570.02,0.0
55742.0,STARLINK-5594,PAYLOAD,2023-12-16 11:09:34,14.98340919,0.0002894,69.9997,137.5496,259.127,100.9563,3.0575e-05,2.72e-06,0.0,0 STARLINK-5594,1 55742U 23028B   23350.46498123  .00000272  00000-0  30575-4 0  9993,2 55742  69.9997 137.5496 0002894 259.1270 100.9563 14.98340919 44075,6950.159,96.106,574.036,570.013,0.0
55742.0,STARLINK-5594,PAYLOAD,2023-12-16 14:21:50,14.98340352,0.0002922,69.9996,137.2131,257.7525,102.3307,1.5416e-05,9.1e-07,0.0,0 STARLINK-5594,1 55742U 23028B   23350.59850097  .00000091  00000-0  15416-4 0  9995,2 55742  69.9996 137.2131 0002922 257.7525 102.3307 14.98340352 44091,6950.161,96.106,574.057,569.995,0.0
55742.0,STARLINK-5594,PAYLOAD,2023-12-16 19:10:14,14.98339495,0.0002922,69.9996,136.708,257.0919,102.9914,2.4925e-07,-9e-07,0.0,0 STARLINK-5594,1 55742U 23028B   23350.79878035 -.00000090  00000-0  24925-6 0  9996,2 55742  69.9996 136.7080 0002922 257.0919 102.9914 14.98339495 44128,6950.164,96.106,574.059,569.998,0.0
55742.0,STARLINK-5594,PAYLOAD,2023-12-17 12:47:43,14.98329231,0.0002927,69.9997,134.8561,257.1932,102.89,8.1903e-05,8.84e-06,0.0,0 STARLINK-5594,1 55742U 23028B   23351.53314359  .00000884  00000-0  81903-4 0  9990,2 55742  69.9997 134.8561 0002927 257.1932 102.8900 14.98329231 44236,6950.195,96.107,574.095,570.026,0.0
55742.0,STARLINK-5594,PAYLOAD,2023-12-17 14:23:51,14.98330382,0.0002907,69.9997,134.6878,257.0533,103.0301,9.6121e-05,1.054e-05,0.0,0 STARLINK-5594,1 55742U 23028B   23351.59990280  .00001054  00000-0  96121-4 0  9997,2 55742  69.9997 134.6878 0002907 257.0533 103.0301 14.98330382 44247,6950.192,96.107,574.077,570.036,0.0
55742.0,STARLINK-5594,PAYLOAD,2023-12-17 19:12:15,14.98331964,0.0002905,69.9998,134.1831,257.3885,102.6949,0.00010745,1.189e-05,0.0,0 STARLINK-5594,1 55742U 23028B   23351.80018164  .00001189  00000-0  10745-3 0  9999,2 55742  69.9998 134.1831 0002905 257.3885 102.6949 14.98331964 44276,6950.187,96.107,574.071,570.033,0.0
55742.0,STARLINK-5594,PAYLOAD,2023-12-18 11:13:35,14.9833734,0.0002811,70.0002,132.5005,252.9186,107.1665,0.00012182,1.361e-05,0.0,0 STARLINK-5594,1 55742U 23028B   23352.46777685  .00001361  00000-0  12182-3 0  9991,2 55742  70.0002 132.5005 0002811 252.9186 107.1665 14.98337340 44371,6950.17,96.107,573.989,570.081,0.0
55742.0,STARLINK-5594,PAYLOAD,2023-12-18 14:25:51,14.98338204,0.0002801,70.0004,132.164,252.0946,107.9908,0.00012971,1.455e-05,0.0,0 STARLINK-5594,1 55742U 23028B   23352.60129555  .00001455  00000-0  12971-3 0  9994,2 55742  70.0004 132.1640 0002801 252.0946 107.9908 14.98338204 44398,6950.168,96.106,573.979,570.086,0.0
55742.0,STARLINK-5594,PAYLOAD,2023-12-18 19:14:16,14.98337944,0.0002841,70.0001,131.6586,256.4117,103.6726,0.00011832,1.319e-05,0.0,0 STARLINK-5594,1 55742U 23028B   23352.80157546  .00001319  00000-0  11832-3 0  9991,2 55742  70.0001 131.6586 0002841 256.4117 103.6726 14.98337944 44425,6950.168,96.106,574.008,570.059,0.0
55742.0,STARLINK-5594,PAYLOAD,2023-12-19 11:15:36,14.98333694,0.0002823,70.0004,129.9762,255.6127,104.4718,9.5278e-05,1.044e-05,0.0,0 STARLINK-5594,1 55742U 23028B   23353.46917746  .00001044  00000-0  95278-4 0  9992,2 55742  70.0004 129.9762 0002823 255.6127 104.4718 14.98333694 44525,6950.181,96.107,574.009,570.084,0.0
55742.0,STARLINK-5594,PAYLOAD,2023-12-19 14:27:53,14.98334168,0.0002688,70.0004,129.6396,257.014,103.0719,8.9728e-05,9.78e-06,0.0,0 STARLINK-5594,1 55742U 23028B   23353.60269731  .00000978  00000-0  89728-4 0  9990,2 55742  70.0004 129.6396 0002688 257.0140 103.0719 14.98334168 44540,6950.18,96.107,573.913,570.177,0.0
55742.0,STARLINK-5594,PAYLOAD,2023-12-20 11:17:38,14.98329318,0.0002828,70.0009,127.4526,253.2546,106.8303,-4.8715e-06,-1.51e-06,0.0,0 STARLINK-5594,1 55742U 23028B   23354.47058176 -.00000151  00000-0 -48715-5 0  9992,2 55742  70.0009 127.4526 0002828 253.2546 106.8303 14.98329318 44675,6950.195,96.107,574.026,570.094,0.0
55742.0,STARLINK-5594,PAYLOAD,2023-12-20 12:53:46,14.98330295,0.0002796,70.0008,127.284,252.1084,107.977,-1.6726e-05,-2.93e-06,0.0,0 STARLINK-5594,1 55742U 23028B   23354.53734158 -.00000293  00000-0 -16726-4 0  9993,2 55742  70.0008 127.2840 0002796 252.1084 107.9770 14.98330295 44687,6950.192,96.107,574.0,570.114,0.0
55742.0,STARLINK-5594,PAYLOAD,2023-12-20 19:18:18,14.98332906,0.0003058,69.9997,126.6086,264.6903,95.3907,-9.4711e-06,-2.06e-06,0.0,0 STARLINK-5594,1 55742U 23028B   23354.80437908 -.00000206  00000-0 -94711-5 0  9991,2 55742  69.9997 126.6086 0003058 264.6903  95.3907 14.98332906 44724,6950.184,96.107,574.174,569.924,0.0
55742.0,STARLINK-5594,PAYLOAD,2023-12-21 11:19:38,14.98333499,0.0003081,69.9997,124.9249,270.0713,90.0093,0.00011209,1.245e-05,0.0,0 STARLINK-5594,1 55742U 23028B   23355.47197708  .00001245  00000-0  11209-3 0  9997,2 55742  69.9997 124.9249 0003081 270.0713  90.0093 14.98333499 44829,6950.182,96.107,574.188,569.906,0.0
55742.0,STARLINK-5594,PAYLOAD,2023-12-21 14:31:54,14.98354159,0.0002756,69.9997,124.5881,264.5253,95.5591,-0.00027152,-3.333e-05,0.0,0 STARLINK-5594,1 55742U 23028B   23355.60549086 -.00003333  00000-0 -27152-3 0  9998,2 55742  69.9997 124.5881 0002756 264.5253  95.5591 14.98354159 44843,6950.118,96.105,573.899,570.068,0.0
